{"type": "FeatureCollection", "features": [ {"type": "Feature", "properties": {"norad_id": 40697, "name": "SENTINEL-2A", "group": "resource", "lat": 69.16496384082424, "lon": -105.11144164676278, "alt_km": 781.532040052969, "timestamp": "2025-12-04T21:36:15.531554+00:00", "meta": {"OBJECT_NAME": "SENTINEL-2A", "OBJECT_ID": "2015-028A", "EPOCH": "2025-12-04T16:03:42.165792", "MEAN_MOTION": 14.30822517, "ECCENTRICITY": 0.00010335, "INCLINATION": 98.5701, "RA_OF_ASC_NODE": 51.3169, "ARG_OF_PERICENTER": 93.8151, "MEAN_ANOMALY": 266.315, "EPHEMERIS_TYPE": 0, "CLASSIFICATION_TYPE": "U", "NORAD_CAT_ID": 40697, "ELEMENT_SET_NO": 999, "REV_AT_EPOCH": 54591, "BSTAR": 0.00014443148, "MEAN_MOTION_DOT": 3.35e-06, "MEAN_MOTION_DDOT": 0}, "tle": {"line1": "1 40697U 15028A   25338.66923803  .00000335  00000+0  14443-3 0  9999", "line2": "2 40697  98.5701  51.3169 0001033  93.8151 266.3150 14.30822517545917"}}, "geometry": {"type": "Point", "coordinates": [-105.11144164676278, 69.16496384082424]}}, {"type": "Feature", "properties": {"norad_id": 40701, "name": "GAOFEN-8", "group": "resource", "lat": 5.742742129047917, "lon": 155.88206810952562, "alt_km": 461.1168483262827, "timestamp": "2025-12-04T21:36:15.531564+00:00", "meta": {"OBJECT_NAME": "GAOFEN-8", "OBJECT_ID": "2015-030A", "EPOCH": "2025-12-04T15:20:01.713408", "MEAN_MOTION": 15.38134002, "ECCENTRICITY": 0.00112674, "INCLINATION": 97.6905, "RA_OF_ASC_NODE": 156.387, "ARG_OF_PERICENTER": 166.5036, "MEAN_ANOMALY": 193.6512, "EPHEMERIS_TYPE": 0, "CLASSIFICATION_TYPE": "U", "NORAD_CAT_ID": 40701, "ELEMENT_SET_NO": 999, "REV_AT_EPOCH": 58146, "BSTAR": 0.00091662645, "MEAN_MOTION_DOT": 0.00034511, "MEAN_MOTION_DDOT": 0}, "tle": {"line1": "1 40701U 15030A   25338.63890872  .00034511  00000+0  91663-3 0  9996", "line2": "2 40701  97.6905 156.3870 0011267 166.5036 193.6512 15.38134002581462"}}, "geometry": {"type": "Point", "coordinates": [155.88206810952562, 5.742742129047917]}}, {"type": "Feature", "properties": {"norad_id": 40718, "name": "CARBONITE 1 (CBNT-1)", "group": "resource", "lat": 64.01806806564112, "lon": 144.3022701006451, "alt_km": 622.3637782431788, "timestamp": "2025-12-04T21:36:15.531575+00:00", "meta": {"OBJECT_NAME": "CARBONITE 1 (CBNT-1)", "OBJECT_ID": "2015-032D", "EPOCH": "2025-12-04T14:49:56.254080", "MEAN_MOTION": 14.82684141, "ECCENTRICITY": 0.00139049, "INCLINATION": 97.6398, "RA_OF_ASC_NODE": 160.02, "ARG_OF_PERICENTER": 208.7749, "MEAN_ANOMALY": 151.2699, "EPHEMERIS_TYPE": 0, "CLASSIFICATION_TYPE": "U", "NORAD_CAT_ID": 40718, "ELEMENT_SET_NO": 999, "REV_AT_EPOCH": 56050, "BSTAR": 0.00062085104, "MEAN_MOTION_DOT": 4.967e-05, "MEAN_MOTION_DDOT": 0}, "tle": {"line1": "1 40718U 15032D   25338.61801220  .00004967  00000+0  62085-3 0  9991", "line2": "2 40718  97.6398 160.0200 0013904 208.7749 151.2699 14.82684141560505"}}, "geometry": {"type": "Point", "coordinates": [144.3022701006451, 64.01806806564112]}}, {"type": "Feature", "properties": {"norad_id": 40878, "name": "YAOGAN-27", "group": "resource", "lat": 39.896705948446666, "lon": 157.44472529741998, "alt_km": 1202.236229748727, "timestamp": "2025-12-04T21:36:15.531585+00:00", "meta": {"OBJECT_NAME": "YAOGAN-27", "OBJECT_ID": "2015-040A", "EPOCH": "2025-12-04T15:25:30.245952", "MEAN_MOTION": 13.16059694, "ECCENTRICITY": 0.00077182, "INCLINATION": 100.1005, "RA_OF_ASC_NODE": 328.6292, "ARG_OF_PERICENTER": 306.6636, "MEAN_ANOMALY": 53.3768, "EPHEMERIS_TYPE": 0, "CLASSIFICATION_TYPE": "U", "NORAD_CAT_ID": 40878, "ELEMENT_SET_NO": 999, "REV_AT_EPOCH": 49207, "BSTAR": 8.1176202e-05, "MEAN_MOTION_DOT": -1.2e-07, "MEAN_MOTION_DDOT": 0}, "tle": {"line1": "1 40878U 15040A   25338.64271118 -.00000012  00000+0  81176-4 0  9998", "line2": "2 40878 100.1005 328.6292 0007718 306.6636  53.3768 13.16059694492079"}}, "geometry": {"type": "Point", "coordinates": [157.44472529741998, 39.896705948446666]}}, {"type": "Feature", "properties": {"norad_id": 40894, "name": "GAOFEN-9 01", "group": "resource", "lat": -5.644708746511267, "lon": 18.95627598861227, "alt_km": 616.8011202315747, "timestamp": "2025-12-04T21:36:15.531595+00:00", "meta": {"OBJECT_NAME": "GAOFEN-9 01", "OBJECT_ID": "2015-047A", "EPOCH": "2025-12-04T15:08:59.576640", "MEAN_MOTION": 14.82390774, "ECCENTRICITY": 0.0028891, "INCLINATION": 97.6554, "RA_OF_ASC_NODE": 17.9372, "ARG_OF_PERICENTER": 59.921, "MEAN_ANOMALY": 300.4864, "EPHEMERIS_TYPE": 0, "CLASSIFICATION_TYPE": "U", "NORAD_CAT_ID": 40894, "ELEMENT_SET_NO": 999, "REV_AT_EPOCH": 55136, "BSTAR": 0.00033307648, "MEAN_MOTION_DOT": 2.636e-05, "MEAN_MOTION_DDOT": 0}, "tle": {"line1": "1 40894U 15047A   25338.63124510  .00002636  00000+0  33308-3 0  9991", "line2": "2 40894  97.6554  17.9372 0028891  59.9210 300.4864 14.82390774551366"}}, "geometry": {"type": "Point", "coordinates": [18.95627598861227, -5.644708746511267]}}, {"type": "Feature", "properties": {"norad_id": 41026, "name": "YAOGAN-28", "group": "resource", "lat": 46.429090780753484, "lon": 109.19241626676886, "alt_km": 491.47387736284054, "timestamp": "2025-12-04T21:36:15.531606+00:00", "meta": {"OBJECT_NAME": "YAOGAN-28", "OBJECT_ID": "2015-064A", "EPOCH": "2025-12-04T15:05:46.198752", "MEAN_MOTION": 15.24138463, "ECCENTRICITY": 0.00120187, "INCLINATION": 97.2801, "RA_OF_ASC_NODE": 116.6519, "ARG_OF_PERICENTER": 152.9619, "MEAN_ANOMALY": 207.2247, "EPHEMERIS_TYPE": 0, "CLASSIFICATION_TYPE": "U", "NORAD_CAT_ID": 41026, "ELEMENT_SET_NO": 999, "REV_AT_EPOCH": 56101, "BSTAR": 0.00077554345, "MEAN_MOTION_DOT": 0.0001886, "MEAN_MOTION_DDOT": 0}, "tle": {"line1": "1 41026U 15064A   25338.62900693  .00018860  00000+0  77554-3 0  9998", "line2": "2 41026  97.2801 116.6519 0012018 152.9619 207.2247 15.24138463561010"}}, "geometry": {"type": "Point", "coordinates": [109.19241626676886, 46.429090780753484]}}, {"type": "Feature", "properties": {"norad_id": 41038, "name": "YAOGAN-29", "group": "resource", "lat": -48.535316871881115, "lon": 172.8619234396469, "alt_km": 627.4654802117248, "timestamp": "2025-12-04T21:36:15.531616+00:00", "meta": {"OBJECT_NAME": "YAOGAN-29", "OBJECT_ID": "2015-069A", "EPOCH": "2025-12-04T15:42:57.007872", "MEAN_MOTION": 14.82868961, "ECCENTRICITY": 6.687e-05, "INCLINATION": 98.0227, "RA_OF_ASC_NODE": 1.8003, "ARG_OF_PERICENTER": 2.7599, "MEAN_ANOMALY": 357.3618, "EPHEMERIS_TYPE": 0, "CLASSIFICATION_TYPE": "U", "NORAD_CAT_ID": 41038, "ELEMENT_SET_NO": 999, "REV_AT_EPOCH": 54179, "BSTAR": 0.00012654367, "MEAN_MOTION_DOT": 9.71e-06, "MEAN_MOTION_DDOT": 0}, "tle": {"line1": "1 41038U 15069A   25338.65482648  .00000971  00000+0  12654-3 0  9998", "line2": "2 41038  98.0227   1.8003 0000668   2.7599 357.3618 14.82868961541792"}}, "geometry": {"type": "Point", "coordinates": [172.8619234396469, -48.535316871881115]}}, {"type": "Feature", "properties": {"norad_id": 41167, "name": "KENT RIDGE 1", "group": "resource", "lat": -8.888131966316559, "lon": -126.47975847931983, "alt_km": 496.21893147924493, "timestamp": "2025-12-04T21:36:15.531626+00:00", "meta": {"OBJECT_NAME": "KENT RIDGE 1", "OBJECT_ID": "2015-077B", "EPOCH": "2025-12-04T13:53:53.103840", "MEAN_MOTION": 15.21536825, "ECCENTRICITY": 0.00086273, "INCLINATION": 14.9803, "RA_OF_ASC_NODE": 271.6913, "ARG_OF_PERICENTER": 15.1583, "MEAN_ANOMALY": 344.8997, "EPHEMERIS_TYPE": 0, "CLASSIFICATION_TYPE": "U", "NORAD_CAT_ID": 41167, "ELEMENT_SET_NO": 999, "REV_AT_EPOCH": 55139, "BSTAR": 0.00034598476, "MEAN_MOTION_DOT": 8.804e-05, "MEAN_MOTION_DDOT": 0}, "tle": {"line1": "1 41167U 15077B   25338.57908685  .00008804  00000+0  34598-3 0  9999", "line2": "2 41167  14.9803 271.6913 0008627  15.1583 344.8997 15.21536825551396"}}, "geometry": {"type": "Point", "coordinates": [-126.47975847931983, -8.888131966316559]}}, {"type": "Feature", "properties": {"norad_id": 41194, "name": "GAOFEN-4", "group": "resource", "lat": 0.13206744499572765, "lon": 143.6768859598538, "alt_km": 35774.236397070505, "timestamp": "2025-12-04T21:36:15.531639+00:00", "meta": {"OBJECT_NAME": "GAOFEN-4", "OBJECT_ID": "2015-083A", "EPOCH": "2025-12-04T14:13:46.718112", "MEAN_MOTION": 1.00273013, "ECCENTRICITY": 0.00037232, "INCLINATION": 0.1483, "RA_OF_ASC_NODE": 80.8016, "ARG_OF_PERICENTER": 105.1492, "MEAN_ANOMALY": 206.8499, "EPHEMERIS_TYPE": 0, "CLASSIFICATION_TYPE": "U", "NORAD_CAT_ID": 41194, "ELEMENT_SET_NO": 999, "REV_AT_EPOCH": 3657, "BSTAR": 0, "MEAN_MOTION_DOT": -3.2e-06, "MEAN_MOTION_DDOT": 0}, "tle": {"line1": "1 41194U 15083A   25338.59290183 -.00000320  00000+0  00000+0 0  9998", "line2": "2 41194   0.1483  80.8016 0003723 105.1492 206.8499  1.00273013 36573"}}, "geometry": {"type": "Point", "coordinates": [143.6768859598538, 0.13206744499572765]}}, {"type": "Feature", "properties": {"norad_id": 41240, "name": "JASON-3", "group": "resource", "lat": -22.615804468255767, "lon": 163.63155504721834, "alt_km": 1313.0073786316934, "timestamp": "2025-12-04T21:36:15.531650+00:00", "meta": {"OBJECT_NAME": "JASON-3", "OBJECT_ID": "2016-002A", "EPOCH": "2025-12-04T16:08:27.386880", "MEAN_MOTION": 12.87626112, "ECCENTRICITY": 0.00071362, "INCLINATION": 66.0392, "RA_OF_ASC_NODE": 174.785, "ARG_OF_PERICENTER": 270.3157, "MEAN_ANOMALY": 89.7044, "EPHEMERIS_TYPE": 0, "CLASSIFICATION_TYPE": "U", "NORAD_CAT_ID": 41240, "ELEMENT_SET_NO": 999, "REV_AT_EPOCH": 46220, "BSTAR": 0.00016945599, "MEAN_MOTION_DOT": -1.9e-07, "MEAN_MOTION_DDOT": 0}, "tle": {"line1": "1 41240U 16002A   25338.67253920 -.00000019  00000+0  16946-3 0  9994", "line2": "2 41240  66.0392 174.7850 0007136 270.3157  89.7044 12.87626112462205"}}, "geometry": {"type": "Point", "coordinates": [163.63155504721834, -22.615804468255767]}}]}